NORAD_CAT_ID,OBJECT_NAME,OBJECT_TYPE,EPOCH,MEAN_MOTION,ECCENTRICITY,INCLINATION,RA_OF_ASC_NODE,ARG_OF_PERICENTER,MEAN_ANOMALY,BSTAR,MEAN_MOTION_DOT,MEAN_MOTION_DDOT,TLE_LINE0,TLE_LINE1,TLE_LINE2,SEMIMAJOR_AXIS,PERIOD,APOGEE,PERIGEE,DECAYED
54788.0,STARLINK-5399,PAYLOAD,2024-01-30 18:57:19,15.08865691,0.0001229,53.2151,240.7155,89.2653,270.8479,0.00056328,8.694e-05,0.0,0 STARLINK-5399,1 54788U 22175AG  24030.78980775  .00008694  00000-0  56328-3 0  9993,2 54788  53.2151 240.7155 0001229  89.2653 270.8479 15.08865691 61892,6917.802,95.436,540.517,538.817,0.0
54788.0,STARLINK-5399,PAYLOAD,2024-01-30 20:32:42,15.08865729,0.0001242,53.215,240.418,88.9512,271.1622,0.00050982,7.841e-05,0.0,0 STARLINK-5399,1 54788U 22175AG  24030.85604643  .00007841  00000-0  50982-3 0  9991,2 54788  53.2150 240.4180 0001242  88.9512 271.1622 15.08865729 64069,6917.802,95.436,540.526,538.808,0.0
54788.0,STARLINK-5399,PAYLOAD,2024-01-31 14:01:56,15.08855938,0.0001669,53.2154,237.1391,127.3779,232.7366,0.00013771,1.905e-05,0.0,0 STARLINK-5399,1 54788U 22175AG  24031.58468053  .00001905  00000-0  13771-3 0  9995,2 54788  53.2154 237.1391 0001669 127.3779 232.7366 15.08855938 62018,6917.832,95.437,540.851,538.542,0.0
54788.0,STARLINK-5399,PAYLOAD,2024-01-31 23:34:15,15.08846086,0.0001471,53.2158,235.3574,121.1426,238.971,-2.5516e-05,-6.94e-06,0.0,0 STARLINK-5399,1 54788U 22175AG  24031.98212123 -.00000694  00000-0 -25516-4 0  9991,2 54788  53.2158 235.3574 0001471 121.1426 238.9710 15.08846086 62078,6917.862,95.437,540.744,538.709,0.0
54788.0,STARLINK-5399,PAYLOAD,2024-02-01 13:52:43,15.08840441,0.0001438,53.2161,232.6799,125.1375,234.9752,4.8006e-05,4.76e-06,0.0,0 STARLINK-5399,1 54788U 22175AG  24032.57828281  .00000476  00000-0  48006-4 0  9990,2 54788  53.2161 232.6799 0001438 125.1375 234.9752 15.08840441 64322,6917.879,95.438,540.739,538.749,0.0
54788.0,STARLINK-5399,PAYLOAD,2024-02-02 12:08:07,15.08841036,0.000151,53.2159,228.5237,89.0187,271.0979,8.2467e-05,1.025e-05,0.0,0 STARLINK-5399,1 54788U 22175AG  24033.50564448  .00001025  00000-0  82467-4 0  9996,2 54788  53.2159 228.5237 0001510  89.0187 271.0979 15.08841036 62300,6917.877,95.437,540.787,538.698,0.0
54788.0,STARLINK-5399,PAYLOAD,2024-02-02 18:29:40,15.08842267,0.0001581,53.2153,227.3331,107.591,252.5255,0.00013614,1.879e-05,0.0,0 STARLINK-5399,1 54788U 22175AG  24033.77060361  .00001879  00000-0  13614-3 0  9994,2 54788  53.2153 227.3331 0001581 107.5910 252.5255 15.08842267 64506,6917.873,95.437,540.832,538.645,0.0
54788.0,STARLINK-5399,PAYLOAD,2024-02-02 23:15:49,15.08838226,0.0001478,53.2166,226.4452,50.0042,310.108,-4.5546e-06,-3.6e-06,0.0,0 STARLINK-5399,1 54788U 22175AG  24033.96932795 -.00000360  00000-0 -45546-5 0  9991,2 54788  53.2166 226.4452 0001478  50.0042 310.1080 15.08838226 62377,6917.886,95.438,540.773,538.728,0.0
54788.0,STARLINK-5399,PAYLOAD,2024-02-03 19:55:52,15.08827152,0.0001664,53.2168,222.5768,92.5737,267.5446,1.6855e-05,-2e-07,0.0,0 STARLINK-5399,1 54788U 22175AG  24034.83046719 -.00000020  00000-0  16855-4 0  9992,2 54788  53.2168 222.5768 0001664  92.5737 267.5446 15.08827152 62507,6917.92,95.438,540.936,538.634,0.0
54788.0,STARLINK-5399,PAYLOAD,2024-02-03 21:31:15,15.08829547,0.0001733,53.2163,222.2789,114.5264,245.5909,3.7941e-05,3.16e-06,0.0,0 STARLINK-5399,1 54788U 22175AG  24034.89670378  .00000316  00000-0  37941-4 0  9998,2 54788  53.2163 222.2789 0001733 114.5264 245.5909 15.08829547 64679,6917.912,95.438,540.976,538.578,0.0
54788.0,STARLINK-5399,PAYLOAD,2024-02-04 11:49:43,15.08836377,0.0001968,53.2155,219.6013,104.0742,256.0469,6.4446e-05,7.38e-06,0.0,0 STARLINK-5399,1 54788U 22175AG  24035.49286305  .00000738  00000-0  64446-4 0  9996,2 54788  53.2155 219.6013 0001968 104.0742 256.0469 15.08836377 62603,6917.891,95.438,541.118,538.395,0.0
54788.0,STARLINK-5399,PAYLOAD,2024-02-04 19:46:39,15.08842475,0.0001726,53.2151,218.1159,102.5862,257.5323,0.00041934,6.393e-05,0.0,0 STARLINK-5399,1 54788U 22175AG  24035.82406392  .00006393  00000-0  41934-3 0  9992,2 54788  53.2151 218.1159 0001726 102.5862 257.5323 15.08842475 64818,6917.873,95.437,540.932,538.544,0.0
54788.0,STARLINK-5399,PAYLOAD,2024-02-05 11:40:30,15.08855559,0.0001597,53.2149,215.1418,100.6316,259.4856,0.00059095,9.133e-05,0.0,0 STARLINK-5399,1 54788U 22175AG  24036.48645968  .00009133  00000-0  59095-3 0  9991,2 54788  53.2149 215.1418 0001597 100.6316 259.4856 15.08855559 62759,6917.833,95.437,540.803,538.593,0.0
54788.0,STARLINK-5399,PAYLOAD,2024-02-05 18:02:02,15.08865497,0.0001586,53.2144,213.9528,97.8458,262.2714,0.00071169,0.00011065,0.0,0 STARLINK-5399,1 54788U 22175AG  24036.75141509  .00011065  00000-0  71169-3 0  9996,2 54788  53.2144 213.9528 0001586  97.8458 262.2714 15.08865497 64955,6917.802,95.436,540.765,538.57,0.0
54788.0,STARLINK-5399,PAYLOAD,2024-02-06 11:31:16,15.08858891,0.0001703,53.2146,210.6828,87.0895,273.0292,0.00024646,3.639e-05,0.0,0 STARLINK-5399,1 54788U 22175AG  24037.48004957  .00003639  00000-0  24646-3 0  9998,2 54788  53.2146 210.6828 0001703  87.0895 273.0292 15.08858891 62905,6917.823,95.436,540.866,538.51,0.0
54788.0,STARLINK-5399,PAYLOAD,2024-02-06 14:42:02,15.08856844,0.000167,53.2148,210.0874,90.2253,269.8931,0.00018231,2.616e-05,0.0,0 STARLINK-5399,1 54788U 22175AG  24037.61252880  .00002616  00000-0  18231-3 0  9990,2 54788  53.2148 210.0874 0001670  90.2253 269.8931 15.08856844 65080,6917.829,95.436,540.849,538.539,0.0
54788.0,STARLINK-5399,PAYLOAD,2024-02-06 17:52:48,15.08855714,0.0001624,53.215,209.4929,92.3858,267.732,0.00014794,2.068e-05,0.0,0 STARLINK-5399,1 54788U 22175AG  24037.74500784  .00002068  00000-0  14794-3 0  9994,2 54788  53.2150 209.4929 0001624  92.3858 267.7320 15.08855714 65106,6917.832,95.437,540.821,538.574,0.0
54788.0,STARLINK-5399,PAYLOAD,2024-02-07 11:22:03,15.0884899,0.0001758,53.2153,206.2238,84.447,275.6723,1.0425e-05,-1.22e-06,0.0,0 STARLINK-5399,1 54788U 22175AG  24038.47364738 -.00000122  00000-0  10425-4 0  9990,2 54788  53.2153 206.2238 0001758  84.4470 275.6723 15.08848990 63052,6917.853,95.437,540.934,538.502,0.0
54788.0,STARLINK-5399,PAYLOAD,2024-02-07 14:32:49,15.08845729,0.0001752,53.2159,205.6279,98.7838,261.3353,-4.8153e-05,-1.055e-05,0.0,0 STARLINK-5399,1 54788U 22175AG  24038.60612730 -.00001055  00000-0 -48153-4 0  9999,2 54788  53.2159 205.6279 0001752  98.7838 261.3353 15.08845729 65236,6917.863,95.437,540.94,538.516,0.0
54788.0,STARLINK-5399,PAYLOAD,2024-02-07 17:43:35,15.08850789,0.0001591,53.2165,205.0318,86.1152,274.0022,-4.823e-05,-1.056e-05,0.0,0 STARLINK-5399,1 54788U 22175AG  24038.73860682 -.00001056  00000-0 -48230-4 0  9991,2 54788  53.2165 205.0318 0001591  86.1152 274.0022 15.08850789 65250,6917.847,95.437,540.813,538.612,0.0
54788.0,STARLINK-5399,PAYLOAD,2024-02-08 11:12:50,15.08837093,0.000151,53.2162,201.7606,84.2817,275.8347,-5.8594e-05,-1.22e-05,0.0,0 STARLINK-5399,1 54788U 22175AG  24039.46725511 -.00001220  00000-0 -58594-4 0  9990,2 54788  53.2162 201.7606 0001510  84.2817 275.8347 15.08837093 63203,6917.889,95.438,540.799,538.71,0.0
54788.0,STARLINK-5399,PAYLOAD,2024-02-08 14:23:37,15.08837446,0.0001496,53.2166,201.1665,86.4086,273.7078,-4.217e-05,-9.59e-06,0.0,0 STARLINK-5399,1 54788U 22175AG  24039.59973431 -.00000959  00000-0 -42170-4 0  9991,2 54788  53.2166 201.1665 0001496  86.4086 273.7078 15.08837446 65382,6917.888,95.438,540.788,538.718,0.0
54788.0,STARLINK-5399,PAYLOAD,2024-02-08 15:59:00,15.08838582,0.0001484,53.2167,200.8691,84.1214,275.9947,-4.3159e-05,-9.75e-06,0.0,0 STARLINK-5399,1 54788U 22175AG  24039.66597366 -.00000975  00000-0 -43159-4 0  9994,2 54788  53.2167 200.8691 0001484  84.1214 275.9947 15.08838582 65395,6917.885,95.438,540.776,538.723,0.0
54788.0,STARLINK-5399,PAYLOAD,2024-02-09 11:03:37,15.08839982,0.0001362,53.2159,197.3005,85.3215,274.7933,0.00011284,1.508e-05,0.0,0 STARLINK-5399,1 54788U 22175AG  24040.46084835  .00001508  00000-0  11284-3 0  9990,2 54788  53.2159 197.3005 0001362  85.3215 274.7933 15.08839982 63355,6917.88,95.438,540.688,538.803,0.0
54788.0,STARLINK-5399,PAYLOAD,2024-02-09 14:14:23,15.08842883,0.0001323,53.2158,196.7056,80.1613,279.9528,0.00012808,1.751e-05,0.0,0 STARLINK-5399,1 54788U 22175AG  24040.59332668  .00001751  00000-0  12808-3 0  9997,2 54788  53.2158 196.7056 0001323  80.1613 279.9528 15.08842883 65538,6917.872,95.437,540.652,538.821,0.0
54788.0,STARLINK-5399,PAYLOAD,2024-02-09 17:25:09,15.08849897,0.0001722,53.2166,196.1114,91.3463,268.7727,9.9293e-05,1.293e-05,0.0,0 STARLINK-5399,1 54788U 22175AG  24040.72580347  .00001293  00000-0  99293-4 0  9996,2 54788  53.2166 196.1114 0001722  91.3463 268.7727 15.08849897 63397,6917.85,95.437,540.906,538.524,0.0
54788.0,STARLINK-5399,PAYLOAD,2024-02-10 10:54:24,15.08837545,0.0001563,53.2179,192.8394,102.4781,257.6386,9.384e-05,1.206e-05,0.0,0 STARLINK-5399,1 54788U 22175AG  24041.45445322  .00001206  00000-0  93840-4 0  9996,2 54788  53.2179 192.8394 0001563 102.4781 257.6386 15.08837545 63502,6917.888,95.438,540.834,538.672,0.0
54788.0,STARLINK-5399,PAYLOAD,2024-02-10 14:05:11,15.08838899,0.0001453,53.2176,192.2448,99.6734,260.4423,9.8378e-05,1.278e-05,0.0,0 STARLINK-5399,1 54788U 22175AG  24041.58693317  .00001278  00000-0  98378-4 0  9999,2 54788  53.2176 192.2448 0001453  99.6734 260.4423 15.08838899 65684,6917.884,95.438,540.754,538.744,0.0
54788.0,STARLINK-5399,PAYLOAD,2024-02-10 17:15:57,15.08841782,0.0001428,53.2174,191.6493,100.0372,260.0781,0.00010608,1.401e-05,0.0,0 STARLINK-5399,1 54788U 22175AG  24041.71941070  .00001401  00000-0  10608-3 0  9993,2 54788  53.2174 191.6493 0001428 100.0372 260.0781 15.08841782 65703,6917.875,95.437,540.728,538.752,0.0
54788.0,STARLINK-5399,PAYLOAD,2024-02-11 13:55:57,15.08848037,0.0001563,53.2171,187.7836,108.6232,251.493,1.4783e-05,-5.3e-07,0.0,0 STARLINK-5399,1 54788U 22175AG  24042.58052824 -.00000053  00000-0  14783-4 0  9991,2 54788  53.2171 187.7836 0001563 108.6232 251.4930 15.08848037 65830,6917.856,95.437,540.802,538.64,0.0
